{
  "type": "FeatureCollection",
  "features": [
    {
      "type": "Feature",
      "properties": {
        "norad_id": 64694,
        "name": "GOSAT-GW (IBUKI GW)",
        "group": "resource",
        "lat": -77.98848668735586,
        "lon": 68.12153854351166,
        "alt_km": 677.2035110368997,
        "timestamp": "2025-12-20T09:36:01.289667+00:00",
        "meta_object_name": "GOSAT-GW (IBUKI GW)",
        "meta_object_id": "2025-141A",
        "meta_epoch": "2025-12-19T22:35:47.099904",
        "meta_mean_motion": 14.67564581,
        "meta_eccentricity": 0.00014403,
        "meta_inclination": 98.0434,
        "meta_ra_of_asc_node": 289.324,
        "meta_arg_of_pericenter": 83.9364,
        "meta_mean_anomaly": 276.2005,
        "meta_ephemeris_type": 0,
        "meta_classification_type": "U",
        "meta_norad_cat_id": 64694,
        "meta_element_set_no": 999,
        "meta_rev_at_epoch": 2555,
        "meta_bstar": 7.6145585e-05,
        "meta_mean_motion_dot": 3.84e-06,
        "meta_mean_motion_ddot": 0,
        "tle_line1": "1 64694U 25141A   25353.94151736  .00000384  00000+0  76146-4 0  9998",
        "tle_line2": "2 64694  98.0434 289.3240 0001440  83.9364 276.2005 14.67564581 25555"
      },
      "geometry": {
        "type": "Point",
        "coordinates": [
          68.12153854351166,
          -77.98848668735586
        ]
      }
    },
    {
      "type": "Feature",
      "properties": {
        "norad_id": 64876,
        "name": "IONOSFERA-M 3",
        "group": "resource",
        "lat": 71.63450787957493,
        "lon": -70.99727370726887,
        "alt_km": 812.2389977428174,
        "timestamp": "2025-12-20T09:36:01.289677+00:00",
        "meta_object_name": "IONOSFERA-M 3",
        "meta_object_id": "2025-155A",
        "meta_epoch": "2025-12-19T21:25:45.690816",
        "meta_mean_motion": 14.21442671,
        "meta_eccentricity": 0.00020322,
        "meta_inclination": 98.5792,
        "meta_ra_of_asc_node": 315.5568,
        "meta_arg_of_pericenter": 48.5719,
        "meta_mean_anomaly": 311.5633,
        "meta_ephemeris_type": 0,
        "meta_classification_type": "U",
        "meta_norad_cat_id": 64876,
        "meta_element_set_no": 999,
        "meta_rev_at_epoch": 2093,
        "meta_bstar": 3.8543377e-05,
        "meta_mean_motion_dot": 4.2e-07,
        "meta_mean_motion_ddot": 0,
        "tle_line1": "1 64876U 25155A   25353.89288994  .00000042  00000+0  38543-4 0  9996",
        "tle_line2": "2 64876  98.5792 315.5568 0002032  48.5719 311.5633 14.21442671 20935"
      },
      "geometry": {
        "type": "Point",
        "coordinates": [
          -70.99727370726887,
          71.63450787957493
        ]
      }
    },
    {
      "type": "Feature",
      "properties": {
        "norad_id": 64877,
        "name": "IONOSFERA-M 4",
        "group": "resource",
        "lat": -72.27997616195015,
        "lon": 107.77576352934324,
        "alt_km": 828.7222119750395,
        "timestamp": "2025-12-20T09:36:01.289687+00:00",
        "meta_object_name": "IONOSFERA-M 4",
        "meta_object_id": "2025-155B",
        "meta_epoch": "2025-12-19T22:16:14.924064",
        "meta_mean_motion": 14.21443833,
        "meta_eccentricity": 0.00014295,
        "meta_inclination": 98.5791,
        "meta_ra_of_asc_node": 315.5103,
        "meta_arg_of_pericenter": 56.2276,
        "meta_mean_anomaly": 303.9038,
        "meta_ephemeris_type": 0,
        "meta_classification_type": "U",
        "meta_norad_cat_id": 64877,
        "meta_element_set_no": 999,
        "meta_rev_at_epoch": 2093,
        "meta_bstar": 3.8455484e-05,
        "meta_mean_motion_dot": 4.1e-07,
        "meta_mean_motion_ddot": 0,
        "tle_line1": "1 64877U 25155B   25353.92795051  .00000041  00000+0  38455-4 0  9999",
        "tle_line2": "2 64877  98.5791 315.5103 0001429  56.2276 303.9038 14.21443833 20938"
      },
      "geometry": {
        "type": "Point",
        "coordinates": [
          107.77576352934324,
          -72.27997616195015
        ]
      }
    },
    {
      "type": "Feature",
      "properties": {
        "norad_id": 64899,
        "name": "MICROCARB",
        "group": "resource",
        "lat": 2.351305588514936,
        "lon": 69.29141928052792,
        "alt_km": 663.1081201319421,
        "timestamp": "2025-12-20T09:36:01.289697+00:00",
        "meta_object_name": "MICROCARB",
        "meta_object_id": "2025-156A",
        "meta_epoch": "2025-12-19T10:45:02.700288",
        "meta_mean_motion": 14.72067357,
        "meta_eccentricity": 0.0017459,
        "meta_inclination": 98.0019,
        "meta_ra_of_asc_node": 68.6857,
        "meta_arg_of_pericenter": 124.5488,
        "meta_mean_anomaly": 235.737,
        "meta_ephemeris_type": 0,
        "meta_classification_type": "U",
        "meta_norad_cat_id": 64899,
        "meta_element_set_no": 999,
        "meta_rev_at_epoch": 2152,
        "meta_bstar": 8.8769e-05,
        "meta_mean_motion_dot": 5.09e-06,
        "meta_mean_motion_ddot": 0,
        "tle_line1": "1 64899U 25156A   25353.44794792  .00000509  00000+0  88769-4 0  9994",
        "tle_line2": "2 64899  98.0019  68.6857 0017459 124.5488 235.7370 14.72067357 21522"
      },
      "geometry": {
        "type": "Point",
        "coordinates": [
          69.29141928052792,
          2.351305588514936
        ]
      }
    },
    {
      "type": "Feature",
      "properties": {
        "norad_id": 64900,
        "name": "CO3D 3",
        "group": "resource",
        "lat": -69.34389221119835,
        "lon": 90.92388894003345,
        "alt_km": 513.3348859097223,
        "timestamp": "2025-12-20T09:36:01.289707+00:00",
        "meta_object_name": "CO3D 3",
        "meta_object_id": "2025-156B",
        "meta_epoch": "2025-12-19T22:51:09.470880",
        "meta_mean_motion": 15.2019727,
        "meta_eccentricity": 0.0001368,
        "meta_inclination": 97.4347,
        "meta_ra_of_asc_node": 70.2162,
        "meta_arg_of_pericenter": 79.9333,
        "meta_mean_anomaly": 280.2056,
        "meta_ephemeris_type": 0,
        "meta_classification_type": "U",
        "meta_norad_cat_id": 64900,
        "meta_element_set_no": 999,
        "meta_rev_at_epoch": 2230,
        "meta_bstar": 0.00025130044,
        "meta_mean_motion_dot": 5.376e-05,
        "meta_mean_motion_ddot": 0,
        "tle_line1": "1 64900U 25156B   25353.95219295  .00005376  00000+0  25130-3 0  9992",
        "tle_line2": "2 64900  97.4347  70.2162 0001368  79.9333 280.2056 15.20197270 22309"
      },
      "geometry": {
        "type": "Point",
        "coordinates": [
          90.92388894003345,
          -69.34389221119835
        ]
      }
    },
    {
      "type": "Feature",
      "properties": {
        "norad_id": 64901,
        "name": "CO3D 4",
        "group": "resource",
        "lat": -69.95681206566141,
        "lon": 91.62885420815199,
        "alt_km": 512.8170931040722,
        "timestamp": "2025-12-20T09:36:01.289717+00:00",
        "meta_object_name": "CO3D 4",
        "meta_object_id": "2025-156C",
        "meta_epoch": "2025-12-19T14:57:26.055072",
        "meta_mean_motion": 15.20230123,
        "meta_eccentricity": 0.0001264,
        "meta_inclination": 97.434,
        "meta_ra_of_asc_node": 69.8917,
        "meta_arg_of_pericenter": 174.7354,
        "meta_mean_anomaly": 185.3894,
        "meta_ephemeris_type": 0,
        "meta_classification_type": "U",
        "meta_norad_cat_id": 64901,
        "meta_element_set_no": 999,
        "meta_rev_at_epoch": 2225,
        "meta_bstar": 0.00021367,
        "meta_mean_motion_dot": 4.564e-05,
        "meta_mean_motion_ddot": 0,
        "tle_line1": "1 64901U 25156C   25353.62321823  .00004564  00000+0  21367-3 0  9994",
        "tle_line2": "2 64901  97.4340  69.8917 0001264 174.7354 185.3894 15.20230123 22251"
      },
      "geometry": {
        "type": "Point",
        "coordinates": [
          91.62885420815199,
          -69.95681206566141
        ]
      }
    },
    {
      "type": "Feature",
      "properties": {
        "norad_id": 64902,
        "name": "CO3D 2",
        "group": "resource",
        "lat": 67.8199729157269,
        "lon": -90.76484297577919,
        "alt_km": 498.4002035234498,
        "timestamp": "2025-12-20T09:36:01.289727+00:00",
        "meta_object_name": "CO3D 2",
        "meta_object_id": "2025-156D",
        "meta_epoch": "2025-12-18T23:56:22.431840",
        "meta_mean_motion": 15.20201426,
        "meta_eccentricity": 6.127e-05,
        "meta_inclination": 97.4339,
        "meta_ra_of_asc_node": 69.1735,
        "meta_arg_of_pericenter": 62.3895,
        "meta_mean_anomaly": 297.7402,
        "meta_ephemeris_type": 0,
        "meta_classification_type": "U",
        "meta_norad_cat_id": 64902,
        "meta_element_set_no": 999,
        "meta_rev_at_epoch": 2215,
        "meta_bstar": 2.1688322e-05,
        "meta_mean_motion_dot": 4.02e-06,
        "meta_mean_motion_ddot": 0,
        "tle_line1": "1 64902U 25156D   25352.99748185  .00000402  00000+0  21688-4 0  9992",
        "tle_line2": "2 64902  97.4339  69.1735 0000612  62.3895 297.7402 15.20201426 22155"
      },
      "geometry": {
        "type": "Point",
        "coordinates": [
          -90.76484297577919,
          67.8199729157269
        ]
      }
    }
  ]
}